start=new Date('2022-06-15T00:00:00.000Z').valueOf();
sats=[{"INCLINATION":"53.2200","COUNTRY_CODE":"US","OBJECT_TYPE":"PAYLOAD","APOAPSIS":"540.905","RA_OF_ASC_NODE":"302.4076","OBJECT_NAME":"STARLINK-3368","EPOCH":"2022-06-14T16:13:39.852480","MEAN_MOTION":"15.08833824","MEAN_ANOMALY":"295.7862","TIME_SYSTEM":"UTC","TLE_LINE2":"2 51107  53.2200 302.4076 0001649  64.3301 295.7862 15.08833824 22822","NORAD_CAT_ID":"51107","MEAN_ELEMENT_THEORY":"SGP4","ELEMENT_SET_NO":"999","PERIOD":"95.438","REF_FRAME":"TEME","SEMIMAJOR_AXIS":"6917.899","DECAY_DATE":null,"OBJECT_ID":"2022-005D","BSTAR":"-0.00000754980000","CENTER_NAME":"EARTH","LAUNCH_DATE":"2022-01-19","CLASSIFICATION_TYPE":"U","ECCENTRICITY":"0.00016490","RCS_SIZE":"LARGE","PERIAPSIS":"538.624","ARG_OF_PERICENTER":"64.3301","TLE_LINE1":"1 51107U 22005D   22165.67615570 -.00000408  00000-0 -75498-5 0  9998","GP_ID":"206171082","MEAN_MOTION_DDOT":"0.0000000000000","SITE":"AFETR","FILE":"3496199","EPHEMERIS_TYPE":"0","MEAN_MOTION_DOT":"-0.00000408","REV_AT_EPOCH":"2282"},{"MEAN_ELEMENT_THEORY":"SGP4","ELEMENT_SET_NO":"999","MEAN_MOTION":"15.08842587","MEAN_ANOMALY":"306.3950","TIME_SYSTEM":"UTC","TLE_LINE2":"2 51108  53.2191 292.0422 0001728  53.7202 306.3950 15.08842587 22970","NORAD_CAT_ID":"51108","DECAY_DATE":null,"OBJECT_ID":"2022-005E","PERIOD":"95.437","REF_FRAME":"TEME","SEMIMAJOR_AXIS":"6917.872","COUNTRY_CODE":"US","OBJECT_TYPE":"PAYLOAD","INCLINATION":"53.2191","EPOCH":"2022-06-14T18:15:29.019456","APOAPSIS":"540.933","RA_OF_ASC_NODE":"292.0422","OBJECT_NAME":"STARLINK-3362","SITE":"AFETR","TLE_LINE1":"1 51108U 22005E   22165.76075254 -.00001046  00000-0 -47617-4 0  9998","ARG_OF_PERICENTER":"53.7202","GP_ID":"206171833","MEAN_MOTION_DDOT":"0.0000000000000","REV_AT_EPOCH":"2297","MEAN_MOTION_DOT":"-0.00001046","EPHEMERIS_TYPE":"0","FILE":"3496199","CENTER_NAME":"EARTH","LAUNCH_DATE":"2022-01-19","CLASSIFICATION_TYPE":"U","BSTAR":"-0.00004761700000","RCS_SIZE":"LARGE","PERIAPSIS":"538.542","ECCENTRICITY":"0.00017280"},{"BSTAR":"-0.00000634410000","CLASSIFICATION_TYPE":"U","CENTER_NAME":"EARTH","LAUNCH_DATE":"2022-01-19","ECCENTRICITY":"0.00014990","RCS_SIZE":"LARGE","PERIAPSIS":"538.706","TLE_LINE1":"1 51109U 22005F   22165.78378832 -.00000389  00000-0 -63441-5 0  9992","GP_ID":"206171580","ARG_OF_PERICENTER":"56.2494","MEAN_MOTION_DDOT":"0.0000000000000","SITE":"AFETR","FILE":"3496199","REV_AT_EPOCH":"2274","MEAN_MOTION_DOT":"-0.00000389","EPHEMERIS_TYPE":"0","INCLINATION":"53.2141","OBJECT_TYPE":"PAYLOAD","COUNTRY_CODE":"US","RA_OF_ASC_NODE":"291.9276","APOAPSIS":"540.779","OBJECT_NAME":"STARLINK-3358","EPOCH":"2022-06-14T18:48:39.310848","MEAN_MOTION":"15.08840945","MEAN_ANOMALY":"303.8640","NORAD_CAT_ID":"51109","TLE_LINE2":"2 51109  53.2141 291.9276 0001499  56.2494 303.8640 15.08840945 22746","TIME_SYSTEM":"UTC","MEAN_ELEMENT_THEORY":"SGP4","ELEMENT_SET_NO":"999","PERIOD":"95.437","SEMIMAJOR_AXIS":"6917.878","REF_FRAME":"TEME","OBJECT_ID":"2022-005F","DECAY_DATE":null},{"MEAN_MOTION_DOT":"0.00000971","EPHEMERIS_TYPE":"0","REV_AT_EPOCH":"2297","FILE":"3496199","SITE":"AFETR","GP_ID":"206170333","TLE_LINE1":"1 51110U 22005G   22165.75340246  .00000971  00000-0  79119-4 0  9992","ARG_OF_PERICENTER":"50.8612","MEAN_MOTION_DDOT":"0.0000000000000","RCS_SIZE":"LARGE","PERIAPSIS":"538.409","ECCENTRICITY":"0.00019510","CLASSIFICATION_TYPE":"U","CENTER_NAME":"EARTH","LAUNCH_DATE":"2022-01-19","BSTAR":"0.00007911900000","OBJECT_ID":"2022-005G","DECAY_DATE":null,"PERIOD":"95.438","SEMIMAJOR_AXIS":"6917.894","REF_FRAME":"TEME","MEAN_ELEMENT_THEORY":"SGP4","ELEMENT_SET_NO":"999","MEAN_ANOMALY":"309.2553","MEAN_MOTION":"15.08835578","NORAD_CAT_ID":"51110","TIME_SYSTEM":"UTC","TLE_LINE2":"2 51110  53.2203 292.0661 0001951  50.8612 309.2553 15.08835578 22976","EPOCH":"2022-06-14T18:04:53.972544","RA_OF_ASC_NODE":"292.0661","APOAPSIS":"541.109","OBJECT_NAME":"STARLINK-3344","OBJECT_TYPE":"PAYLOAD","COUNTRY_CODE":"US","INCLINATION":"53.2203"},{"SEMIMAJOR_AXIS":"6917.902","REF_FRAME":"TEME","PERIOD":"95.438","OBJECT_ID":"2022-005H","DECAY_DATE":null,"NORAD_CAT_ID":"51111","TIME_SYSTEM":"UTC","TLE_LINE2":"2 51111  53.2140 292.1795 0001430  62.1188 297.9949 15.08832767 22960","MEAN_ANOMALY":"297.9949","MEAN_MOTION":"15.08832767","ELEMENT_SET_NO":"999","MEAN_ELEMENT_THEORY":"SGP4","OBJECT_NAME":"STARLINK-3173","RA_OF_ASC_NODE":"292.1795","APOAPSIS":"540.757","EPOCH":"2022-06-14T17:27:47.580192","INCLINATION":"53.2140","OBJECT_TYPE":"PAYLOAD","COUNTRY_CODE":"US","FILE":"3496199","MEAN_MOTION_DOT":"0.00002740","REV_AT_EPOCH":"2296","EPHEMERIS_TYPE":"0","MEAN_MOTION_DDOT":"0.0000000000000","TLE_LINE1":"1 51111U 22005H   22165.72763403  .00002740  00000-0  19023-3 0  9997","ARG_OF_PERICENTER":"62.1188","GP_ID":"206170583","SITE":"AFETR","ECCENTRICITY":"0.00014300","PERIAPSIS":"538.778","RCS_SIZE":"LARGE","BSTAR":"0.00019023000000","CLASSIFICATION_TYPE":"U","LAUNCH_DATE":"2022-01-19","CENTER_NAME":"EARTH"},{"ECCENTRICITY":"0.00016710","RCS_SIZE":"LARGE","PERIAPSIS":"538.580","BSTAR":"0.00009169900000","LAUNCH_DATE":"2022-01-19","CENTER_NAME":"EARTH","CLASSIFICATION_TYPE":"U","FILE":"3496199","REV_AT_EPOCH":"2297","MEAN_MOTION_DOT":"0.00001172","EPHEMERIS_TYPE":"0","GP_ID":"206171334","TLE_LINE1":"1 51112U 22005J   22165.74970676  .00001172  00000-0  91699-4 0  9990","ARG_OF_PERICENTER":"48.4284","MEAN_MOTION_DDOT":"0.0000000000000","SITE":"AFETR","APOAPSIS":"540.892","RA_OF_ASC_NODE":"292.0734","OBJECT_NAME":"STARLINK-3374","EPOCH":"2022-06-14T17:59:34.664064","INCLINATION":"53.2195","COUNTRY_CODE":"US","OBJECT_TYPE":"PAYLOAD","PERIOD":"95.437","REF_FRAME":"TEME","SEMIMAJOR_AXIS":"6917.871","DECAY_DATE":null,"OBJECT_ID":"2022-005J","MEAN_ANOMALY":"311.6852","MEAN_MOTION":"15.08843100","TLE_LINE2":"2 51112  53.2195 292.0734 0001671  48.4284 311.6852 15.08843100 22975","TIME_SYSTEM":"UTC","NORAD_CAT_ID":"51112","MEAN_ELEMENT_THEORY":"SGP4","ELEMENT_SET_NO":"999"},{"OBJECT_NAME":"STARLINK-3372","RA_OF_ASC_NODE":"292.1283","APOAPSIS":"540.843","EPOCH":"2022-06-14T17:43:41.210688","INCLINATION":"53.2154","OBJECT_TYPE":"PAYLOAD","COUNTRY_CODE":"US","SEMIMAJOR_AXIS":"6917.875","REF_FRAME":"TEME","PERIOD":"95.437","OBJECT_ID":"2022-005K","DECAY_DATE":null,"NORAD_CAT_ID":"51113","TIME_SYSTEM":"UTC","TLE_LINE2":"2 51113  53.2154 292.1283 0001594  54.4526 305.6615 15.08841714 22969","MEAN_ANOMALY":"305.6615","MEAN_MOTION":"15.08841714","ELEMENT_SET_NO":"999","MEAN_ELEMENT_THEORY":"SGP4","ECCENTRICITY":"0.00015940","PERIAPSIS":"538.637","RCS_SIZE":"LARGE","BSTAR":"0.00009244700000","CLASSIFICATION_TYPE":"U","LAUNCH_DATE":"2022-01-19","CENTER_NAME":"EARTH","FILE":"3496199","MEAN_MOTION_DOT":"0.00001184","REV_AT_EPOCH":"2296","EPHEMERIS_TYPE":"0","MEAN_MOTION_DDOT":"0.0000000000000","TLE_LINE1":"1 51113U 22005K   22165.73867142  .00001184  00000-0  92447-4 0  9998","ARG_OF_PERICENTER":"54.4526","GP_ID":"206172080","SITE":"AFETR"},{"REV_AT_EPOCH":"2295","MEAN_MOTION_DOT":"-0.00000774","EPHEMERIS_TYPE":"0","FILE":"3496199","SITE":"AFETR","TLE_LINE1":"1 51114U 22005L   22165.62459824 -.00000774  00000-0 -30560-4 0  9995","GP_ID":"206170833","ARG_OF_PERICENTER":"51.7992","MEAN_MOTION_DDOT":"0.0000000000000","RCS_SIZE":"LARGE","PERIAPSIS":"538.571","ECCENTRICITY":"0.00016900","CLASSIFICATION_TYPE":"U","CENTER_NAME":"EARTH","LAUNCH_DATE":"2022-01-19","BSTAR":"-0.00003056000000","OBJECT_ID":"2022-005L","DECAY_DATE":null,"PERIOD":"95.437","SEMIMAJOR_AXIS":"6917.875","REF_FRAME":"TEME","MEAN_ELEMENT_THEORY":"SGP4","ELEMENT_SET_NO":"999","MEAN_ANOMALY":"308.3152","MEAN_MOTION":"15.08841756","NORAD_CAT_ID":"51114","TLE_LINE2":"2 51114  53.2217 292.6472 0001690  51.7992 308.3152 15.08841756 22950","TIME_SYSTEM":"UTC","EPOCH":"2022-06-14T14:59:25.287936","RA_OF_ASC_NODE":"292.6472","APOAPSIS":"540.909","OBJECT_NAME":"STARLINK-3375","OBJECT_TYPE":"PAYLOAD","COUNTRY_CODE":"US","INCLINATION":"53.2217"},{"OBJECT_NAME":"STARLINK-3397","RA_OF_ASC_NODE":"293.3504","APOAPSIS":"540.962","EPOCH":"2022-06-14T11:11:32.675424","INCLINATION":"53.2141","OBJECT_TYPE":"PAYLOAD","COUNTRY_CODE":"US","SEMIMAJOR_AXIS":"6917.866","REF_FRAME":"TEME","PERIOD":"95.437","OBJECT_ID":"2022-005M","DECAY_DATE":null,"NORAD_CAT_ID":"51115","TLE_LINE2":"2 51115  53.2141 293.3504 0001779  61.6613 298.4558 15.08844651 22922","TIME_SYSTEM":"UTC","MEAN_MOTION":"15.08844651","MEAN_ANOMALY":"298.4558","ELEMENT_SET_NO":"999","MEAN_ELEMENT_THEORY":"SGP4","ECCENTRICITY":"0.00017790","PERIAPSIS":"538.500","RCS_SIZE":"LARGE","BSTAR":"0.00008444500000","CLASSIFICATION_TYPE":"U","LAUNCH_DATE":"2022-01-19","CENTER_NAME":"EARTH","FILE":"3495970","REV_AT_EPOCH":"2292","MEAN_MOTION_DOT":"0.00001056","EPHEMERIS_TYPE":"0","MEAN_MOTION_DDOT":"0.0000000000000","TLE_LINE1":"1 51115U 22005M   22165.46635041  .00001056  00000-0  84445-4 0  9998","ARG_OF_PERICENTER":"61.6613","GP_ID":"206140872","SITE":"AFETR"},{"BSTAR":"0.00031476000000","CLASSIFICATION_TYPE":"U","CENTER_NAME":"EARTH","LAUNCH_DATE":"2022-01-19","ECCENTRICITY":"0.00024450","PERIAPSIS":"538.016","RCS_SIZE":"LARGE","MEAN_MOTION_DDOT":"0.0000000000000","TLE_LINE1":"1 51116U 22005N   22165.61354638  .00004726  00000-0  31476-3 0  9998","ARG_OF_PERICENTER":"57.5357","GP_ID":"206171834","SITE":"AFETR","FILE":"3496199","EPHEMERIS_TYPE":"0","MEAN_MOTION_DOT":"0.00004726","REV_AT_EPOCH":"2294","INCLINATION":"53.2132","OBJECT_TYPE":"PAYLOAD","COUNTRY_CODE":"US","OBJECT_NAME":"STARLINK-3243","RA_OF_ASC_NODE":"292.6893","APOAPSIS":"541.399","EPOCH":"2022-06-14T14:43:30.407232","NORAD_CAT_ID":"51116","TLE_LINE2":"2 51116  53.2132 292.6893 0002445  57.5357 302.5871 15.08852324 22949","TIME_SYSTEM":"UTC","MEAN_MOTION":"15.08852324","MEAN_ANOMALY":"302.5871","ELEMENT_SET_NO":"999","MEAN_ELEMENT_THEORY":"SGP4","SEMIMAJOR_AXIS":"6917.843","REF_FRAME":"TEME","PERIOD":"95.437","OBJECT_ID":"2022-005N","DECAY_DATE":null}];
